SL-16 R/B               
1 22803U 93059B   26089.36892538 -.00000175  00000+0 -63016-4 0  9994
2 22803  70.9916 327.5211 0017327 186.4078 173.6827 14.17234658682465
ARIANE 40 R/B           
1 22830U 93061H   26089.43816671  .00000253  00000+0  10847-3 0  9997
2 22830  98.4878 157.9125 0010088 217.3472 142.7011 14.32872007697073
COSMOS 2278             
1 23087U 94023A   26089.53190684 -.00000147  00000+0 -51975-4 0  9993
2 23087  71.0513 131.4947 0009207 341.4616  18.6170 14.14375115647755
SL-16 R/B               
1 23088U 94023B   26089.56901449  .00000327  00000+0  19368-3 0  9993
2 23088  71.0022  27.0366 0005491 266.5818  93.4677 14.15016743649045
SL-16 R/B               
1 23343U 94074B   26089.57623599  .00000625  00000+0  90329-4 0  9999
2 23343  97.7078 119.5455 0007410 143.3316  17.5918 14.79431930690331
SL-16 R/B               
1 23405U 94077B   26089.61312789 -.00000107  00000+0 -30289-4 0  9998
2 23405  70.9831 308.4719 0001839 195.7720 164.3345 14.15569141619197
ARIANE 40+ R/B          
1 23561U 95021B   26089.44718387  .00000356  00000+0  12737-3 0  9997
2 23561  98.4460 160.6448 0007899  83.0737 287.7044 14.39787352622236
SL-16 R/B               
1 23705U 95058B   26089.55046563 -.00000212  00000+0 -84323-4 0  9993
2 23705  71.0199 136.4611 0010161  87.2696 272.9590 14.15498608570805
SL-16 R/B               
1 24298U 96051B   26089.56247014  .00000135  00000+0  99975-4 0  9991
2 24298  70.7584 131.0611 0013385 114.1810 246.0710 14.12421709524593
ORBVIEW 2 (SEASTAR)     
1 24883U 97037A   26089.46780278  .00000361  00000+0  14184-3 0  9998
2 24883  98.8603 254.3341 0002319  25.9059 334.2241 14.35509582511455
SL-16 R/B               
1 25400U 98043G   26089.49990931  .00000092  00000+0  57703-4 0  9990
2 25400  98.8289  43.0154 0009143 319.2841  40.7654 14.26054702441959
SL-16 R/B               
1 25407U 98045B   26089.55114786 -.00000190  00000+0 -71750-4 0  9991
2 25407  71.0097 137.7055 0008056 336.4069  23.6684 14.16193510430054
ISS (ZARYA)             
1 25544U 98067A   26089.35874861  .00011753  00000+0  22376-3 0  9996
2 25544  51.6343 330.1789 0006212 250.3608 109.6710 15.48652900559531
CZ-4B R/B               
1 25732U 99025C   26089.56797839  .00000062  00000+0  50920-4 0  9990
2 25732  98.6585 133.3511 0035990 285.2340 239.1450 14.18269421391127
OKEAN-O                 
1 25860U 99039A   26089.60568678  .00000890  00000+0  12352-3 0  9994
2 25860  97.9399 149.2801 0000859  95.9625 264.1685 14.80369379437480
SL-16 R/B               
1 25861U 99039B   26089.43084648  .00000740  00000+0  10048-3 0  9990
2 25861  97.9921 148.4920 0014679 184.9161 175.1910 14.81760034439932
DELTA 2 R/B             
1 25876U 99041E   26089.60826335  .00001091  00000+0  21471-3 0  9997
2 25876  51.7609 217.7161 0502622  50.1177 314.2846 14.11885669365989
